{
  "type": "Feature",
  "properties": {
    "id": "pivote-meta",
    "name": "Pivote Central — Puerto Gaitán",
    "crop": "Maíz / Soya",
    "region": "Meta, Colombia (Altillanura)",
    "story": "healthy"
  },
  "geometry": {
    "type": "Polygon",
    "coordinates": [
      [
        [
          -71.746398,
          4.05
        ],
        [
          -71.746429,
          4.050469
        ],
        [
          -71.746521,
          4.05093
        ],
        [
          -71.746672,
          4.051375
        ],
        [
          -71.74688,
          4.051797
        ],
        [
          -71.747142,
          4.052187
        ],
        [
          -71.747453,
          4.052541
        ],
        [
          -71.747807,
          4.052851
        ],
        [
          -71.748199,
          4.053112
        ],
        [
          -71.748621,
          4.05332
        ],
        [
          -71.749068,
          4.053471
        ],
        [
          -71.74953,
          4.053563
        ],
        [
          -71.75,
          4.053593
        ],
        [
          -71.75047,
          4.053563
        ],
        [
          -71.750932,
          4.053471
        ],
        [
          -71.751379,
          4.05332
        ],
        [
          -71.751801,
          4.053112
        ],
        [
          -71.752193,
          4.052851
        ],
        [
          -71.752547,
          4.052541
        ],
        [
          -71.752858,
          4.052187
        ],
        [
          -71.75312,
          4.051797
        ],
        [
          -71.753328,
          4.051375
        ],
        [
          -71.753479,
          4.05093
        ],
        [
          -71.753571,
          4.050469
        ],
        [
          -71.753602,
          4.05
        ],
        [
          -71.753571,
          4.049531
        ],
        [
          -71.753479,
          4.04907
        ],
        [
          -71.753328,
          4.048625
        ],
        [
          -71.75312,
          4.048203
        ],
        [
          -71.752858,
          4.047813
        ],
        [
          -71.752547,
          4.047459
        ],
        [
          -71.752193,
          4.047149
        ],
        [
          -71.751801,
          4.046888
        ],
        [
          -71.751379,
          4.04668
        ],
        [
          -71.750932,
          4.046529
        ],
        [
          -71.75047,
          4.046437
        ],
        [
          -71.75,
          4.046407
        ],
        [
          -71.74953,
          4.046437
        ],
        [
          -71.749068,
          4.046529
        ],
        [
          -71.748621,
          4.04668
        ],
        [
          -71.748199,
          4.046888
        ],
        [
          -71.747807,
          4.047149
        ],
        [
          -71.747453,
          4.047459
        ],
        [
          -71.747142,
          4.047813
        ],
        [
          -71.74688,
          4.048203
        ],
        [
          -71.746672,
          4.048625
        ],
        [
          -71.746521,
          4.04907
        ],
        [
          -71.746429,
          4.049531
        ],
        [
          -71.746398,
          4.05
        ]
      ]
    ]
  }
}